CUTE-1 (CO-55)          
1 27844U 03031E   26196.97918347  .00000131  00000+0  75469-4 0  9993
2 27844  98.6744 205.1765 0010840 100.6537 259.5863 14.24351837195771
CUBESAT XI-IV (CO-57)   
1 27848U 03031J   26196.98211364  .00000105  00000+0  65012-4 0  9997
2 27848  98.6774 204.8688 0010566 117.3488 242.8767 14.23634777195474
CUBESAT XI-V            
1 28895U 05043F   26196.93934947  .00000649  00000+0  10996-3 0  9992
2 28895  98.3016 353.1708 0015281 113.0525 247.2294 14.72703396105987
CUTE-1.7+APD II (CO-65) 
1 32785U 08021C   26197.21519572  .00002386  00000+0  15220-3 0  9994
2 32785  97.8296 179.2460 0006940 295.4791  64.5719 15.09706206989579
CANX-2                  
1 32790U 08021H   26197.19606319  .00001340  00000+0  96921-4 0  9990
2 32790  97.8658 177.5446 0008624 314.2838  45.7680 15.05809244989171
SEEDS II (CO-66)        
1 32791U 08021J   26196.98191950  .00009999  00000+0  30950-3 0  9994
2 32791  97.7522 196.2767 0003155 154.4118 205.7280 15.33682976991702
SWISSCUBE               
1 35932U 09051B   26197.17712107  .00000443  00000+0  97133-4 0  9995
2 35932  98.4006 105.5678 0007887 116.4429 243.7582 14.62531689893398
BEESAT-1                
1 35933U 09051C   26196.31185738  .00000377  00000+0  85523-4 0  9991
2 35933  98.3935 104.2639 0006132 129.5089 230.6654 14.61761931893299
ITUPSAT1                
1 35935U 09051E   26196.19038705  .00000349  00000+0  82054-4 0  9995
2 35935  98.4018 103.3025 0008086 143.1681 217.0076 14.60478742892822
TISAT 1                 
1 36799U 10035E   26196.78600925  .00012652  00000+0  40253-3 0  9996
2 36799  98.0716 145.8980 0004554 118.9066 241.2631 15.32747095872088
STRAND-1                
1 39090U 13009E   26197.29699542  .00000112  00000+0  51908-4 0  9995
2 39090  98.3935  16.8169 0009461 138.0921 222.0991 14.37179203701241
BRITE-AUSTRIA           
1 39091U 13009F   26197.04390101  .00000070  00000+0  38472-4 0  9992
2 39091  98.4009  15.7674 0010809 148.2512 211.9329 14.36552721701196
NEE-01 PEGASO           
1 39151U 13018B   26196.33340642  .00001174  00000+0  11643-3 0  9991
2 39151  98.1256 341.4213 0013693  73.9409 286.3317 14.93789204714902
POPACS 2                
1 39269U 13055E   26196.75443690  .00014540 -92046-6  23703-3 0  9995
2 39269  80.9916 111.4814 0414930 102.0893 262.7124 14.92031396667470
POPACS 3                
1 39270U 13055F   26196.42360878  .00008298  00000+0  19704-3 0  9997
2 39270  80.9990 198.5566 0548749 343.9708  14.4695 14.56665007642662
ZACUBE-1 (TSHEPISOSAT)  
1 39417U 13066B   26197.26768226  .00001132  00000+0  91041-4 0  9999
2 39417  97.8007 159.7476 0044071 151.7764 208.5862 15.01331206685094
WNISAT-1                
1 39423U 13066H   26196.96503795  .00000580  00000+0  11337-3 0  9995
2 39423  97.7236 344.0838 0163918 140.9009 220.4174 14.58120940670926
TRITON-1                
1 39427U 13066M   26197.26579359  .00001488  00000+0  18222-3 0  9990
2 39427  97.8228 106.4089 0090644 138.6226 222.1900 14.81800158678397
GOMX-1                  
1 39430U 13066Q   26197.26064153  .00000614  00000+0  99114-4 0  9995
2 39430  97.6464  35.8884 0128171 344.7805  14.9561 14.69543802674188
CUBEBUG-2 (LO-74)       
1 39440U 13066AA  26197.26682240  .00002019  00000+0  18968-3 0  9997
2 39440  97.8916 146.3746 0055589 291.7136  67.8171 14.93971016681336
NEE-02 KRYSAOR          
1 39441U 13066AB  26197.28477696  .00001074  00000+0  12265-3 0  9991
2 39441  97.8897 136.2952 0065306 335.6922  24.1217 14.86741472680521
FUNCUBE-1 (AO-73)       
1 39444U 13066AE  26196.88912523  .00003677  00000+0  22787-3 0  9993
2 39444  97.8290 168.9436 0037989 105.4335 255.1095 15.09822727683990
UWE-3                   
1 39446U 13066AG  26196.82148462  .00001951  00000+0  17026-3 0  9995
2 39446  97.8715 153.0945 0047549 222.4036 137.3508 14.97201399681861
BRITE-CA1 (TORONTO)     
1 40020U 14033L   26196.84598904  .00000513  00000+0  84679-4 0  9994
2 40020  97.9773 325.2513 0078484 184.1727 175.8836 14.72723276646434
DUCHIFAT-1              
1 40021U 14033M   26197.12557747  .00087055  00000+0  68520-3 0  9999
2 40021  98.0416 260.5020 0002770 239.6355 120.4633 15.71200075660280
NANOSATC-BR1            
1 40024U 14033Q   26197.07640645  .00009337  00000+0  30166-3 0  9998
2 40024  98.0707 232.0425 0005282  94.1088 266.0755 15.32346233658404
QB50P1                  
1 40025U 14033R   26197.27644324  .00003942  00000+0  19369-3 0  9997
2 40025  98.0963 210.4713 0010409 121.5140 238.7110 15.18674869657447
QB50P2                  
1 40032U 14033Y   26197.22060492  .00003766  00000+0  20259-3 0  9992
2 40032  98.0760 195.9175 0009287  80.8668 279.3613 15.15513638657063
PERSEUS-M2              
1 40037U 14033AD  26197.30111095  .00001046  00000+0  99684-4 0  9990
2 40037  97.9984 148.4387 0010873 195.2391 164.8504 14.95594457655137
PERSEUS-M1              
1 40039U 14033AF  26197.27173327  .00001023  00000+0  97256-4 0  9992
2 40039  97.9654 141.8842 0010978 192.5288 167.5661 14.95718129654987
